{
  "norad_id": 41911,
  "name": "TJS-2",
  "history": [
    {
      "epoch": "2026-03-28T21:17:38.519232Z",
      "apogee_km": 35792.812143048475,
      "perigee_km": 35780.49327808664,
      "latitude_deg": 0.5194441194247835,
      "longitude_deg": 66.52367289348173,
      "height_km": 35790.61887982934,
      "semi_major_axis_km": 42164.78971056756,
      "eccentricity": 0.00014608,
      "inclination_deg": 0.6266,
      "raan_deg": 86.3516,
      "arg_perigee_deg": 263.0352,
      "mean_anomaly_deg": 222.8357,
      "mean_motion_rev_day": 1.00271579
    },
    {
      "epoch": "2026-03-29T03:04:52.046688Z",
      "apogee_km": 35792.773959761966,
      "perigee_km": 35780.495578222835,
      "latitude_deg": -0.31925670892122976,
      "longitude_deg": 66.5188988742578,
      "height_km": 35782.288235088694,
      "semi_major_axis_km": 42164.7717689924,
      "eccentricity": 0.0001456,
      "inclination_deg": 0.6272,
      "raan_deg": 86.3467,
      "arg_perigee_deg": 263.854,
      "mean_anomaly_deg": 309.0658,
      "mean_motion_rev_day": 1.00271643
    },
    {
      "epoch": "2026-03-30T03:02:28.057632Z",
      "apogee_km": 35792.6634154947,
      "perigee_km": 35780.444088114826,
      "latitude_deg": -0.3221993055420051,
      "longitude_deg": 66.51748490219376,
      "height_km": 35782.45184078931,
      "semi_major_axis_km": 42164.69075180477,
      "eccentricity": 0.0001449,
      "inclination_deg": 0.6299,
      "raan_deg": 86.3296,
      "arg_perigee_deg": 266.9353,
      "mean_anomaly_deg": 306.386,
      "mean_motion_rev_day": 1.00271932
    },
    {
      "epoch": "2026-03-30T09:53:11.164128Z",
      "apogee_km": 35792.66571696379,
      "perigee_km": 35780.40085767061,
      "latitude_deg": -0.4505073286849101,
      "longitude_deg": 66.54584208859954,
      "height_km": 35781.96931751658,
      "semi_major_axis_km": 42164.6702873172,
      "eccentricity": 0.00014544,
      "inclination_deg": 0.6306,
      "raan_deg": 86.3241,
      "arg_perigee_deg": 268.1234,
      "mean_anomaly_deg": 48.1643,
      "mean_motion_rev_day": 1.00272005
    },
    {
      "epoch": "2026-03-30T20:09:10.793664Z",
      "apogee_km": 35792.618870396014,
      "perigee_km": 35780.372574468114,
      "latitude_deg": 0.5941536252533545,
      "longitude_deg": 66.52656765057674,
      "height_km": 35791.646850499,
      "semi_major_axis_km": 42164.63272243206,
      "eccentricity": 0.00014522,
      "inclination_deg": 0.6317,
      "raan_deg": 86.3174,
      "arg_perigee_deg": 269.4217,
      "mean_anomaly_deg": 201.2935,
      "mean_motion_rev_day": 1.00272139
    },
    {
      "epoch": "2026-03-31T20:06:45.847296Z",
      "apogee_km": 35792.53362348683,
      "perigee_km": 35780.29747033772,
      "latitude_deg": 0.5929526030920884,
      "longitude_deg": 66.52678627070394,
      "height_km": 35791.67091407893,
      "semi_major_axis_km": 42164.55254691228,
      "eccentricity": 0.0001451,
      "inclination_deg": 0.6343,
      "raan_deg": 86.3012,
      "arg_perigee_deg": 272.7932,
      "mean_anomaly_deg": 198.3204,
      "mean_motion_rev_day": 1.00272425
    },
    {
      "epoch": "2026-04-01T18:07:38.643168Z",
      "apogee_km": 35792.47449724098,
      "perigee_km": 35780.213066229655,
      "latitude_deg": 0.6165923923957971,
      "longitude_deg": 66.53419740063109,
      "height_km": 35791.74208028076,
      "semi_major_axis_km": 42164.48078173532,
      "eccentricity": 0.0001454,
      "inclination_deg": 0.6366,
      "raan_deg": 86.2858,
      "arg_perigee_deg": 275.963,
      "mean_anomaly_deg": 166.2928,
      "mean_motion_rev_day": 1.00272681
    },
    {
      "epoch": "2026-04-02T20:01:48.919008Z",
      "apogee_km": 35792.39824685454,
      "perigee_km": 35780.128406359494,
      "latitude_deg": 0.5899787235840281,
      "longitude_deg": 66.52965987895223,
      "height_km": 35791.70307111502,
      "semi_major_axis_km": 42164.40032660702,
      "eccentricity": 0.0001455,
      "inclination_deg": 0.6392,
      "raan_deg": 86.2676,
      "arg_perigee_deg": 279.4672,
      "mean_anomaly_deg": 192.4178,
      "mean_motion_rev_day": 1.00272968
    },
    {
      "epoch": "2026-04-02T21:57:21.504672Z",
      "apogee_km": 35792.38954664382,
      "perigee_km": 35780.126454001926,
      "latitude_deg": 0.4137562927130423,
      "longitude_deg": 66.52324782395763,
      "height_km": 35790.33634128739,
      "semi_major_axis_km": 42164.395000322875,
      "eccentricity": 0.00014542,
      "inclination_deg": 0.6394,
      "raan_deg": 86.2654,
      "arg_perigee_deg": 279.6364,
      "mean_anomaly_deg": 221.2162,
      "mean_motion_rev_day": 1.00272987
    },
    {
      "epoch": "2026-04-03T19:59:21.009120Z",
      "apogee_km": 35792.34024266402,
      "perigee_km": 35780.04512412834,
      "latitude_deg": 0.5888102865438416,
      "longitude_deg": 66.53290463566186,
      "height_km": 35791.70060059244,
      "semi_major_axis_km": 42164.32968339618,
      "eccentricity": 0.0001458,
      "inclination_deg": 0.6416,
      "raan_deg": 86.2502,
      "arg_perigee_deg": 282.5982,
      "mean_anomaly_deg": 189.6768,
      "mean_motion_rev_day": 1.0027322
    },
    {
      "epoch": "2026-04-04T05:33:38.759040Z",
      "apogee_km": 35792.29982583713,
      "perigee_km": 35780.03844561286,
      "latitude_deg": -0.6052068615594965,
      "longitude_deg": 66.52767095321843,
      "height_km": 35780.252885122434,
      "semi_major_axis_km": 42164.306135725,
      "eccentricity": 0.0001454,
      "inclination_deg": 0.6426,
      "raan_deg": 86.2424,
      "arg_perigee_deg": 283.2348,
      "mean_anomaly_deg": 333.0175,
      "mean_motion_rev_day": 1.00273304
    },
    {
      "epoch": "2026-04-05T14:15:14.895360Z",
      "apogee_km": 35792.206454175335,
      "perigee_km": 35779.95184639342,
      "latitude_deg": 0.28114683046261796,
      "longitude_deg": 66.55699315948596,
      "height_km": 35786.70631462596,
      "semi_major_axis_km": 42164.21615028438,
      "eccentricity": 0.00014532,
      "inclination_deg": 0.6458,
      "raan_deg": 86.2169,
      "arg_perigee_deg": 287.017,
      "mean_anomaly_deg": 101.0123,
      "mean_motion_rev_day": 1.00273625
    },
    {
      "epoch": "2026-04-05T18:11:42.355104Z",
      "apogee_km": 35792.197199839335,
      "perigee_km": 35779.94428106996,
      "latitude_deg": 0.6299788761826813,
      "longitude_deg": 66.54869942655804,
      "height_km": 35791.257065850106,
      "semi_major_axis_km": 42164.20774045465,
      "eccentricity": 0.0001453,
      "inclination_deg": 0.6461,
      "raan_deg": 86.2165,
      "arg_perigee_deg": 287.5099,
      "mean_anomaly_deg": 159.7973,
      "mean_motion_rev_day": 1.00273655
    },
    {
      "epoch": "2026-04-06T03:55:38.706816Z",
      "apogee_km": 35792.19247062854,
      "perigee_km": 35779.91088575037,
      "latitude_deg": -0.5000158367423743,
      "longitude_deg": 66.53058395815566,
      "height_km": 35782.012709809664,
      "semi_major_axis_km": 42164.18867818946,
      "eccentricity": 0.00014564,
      "inclination_deg": 0.6471,
      "raan_deg": 86.2073,
      "arg_perigee_deg": 288.0027,
      "mean_anomaly_deg": 305.7012,
      "mean_motion_rev_day": 1.00273723
    },
    {
      "epoch": "2026-04-07T14:41:26.062944Z",
      "apogee_km": 35792.0504302968,
      "perigee_km": 35779.903792303616,
      "latitude_deg": 0.36853093043730395,
      "longitude_deg": 66.56971121496976,
      "height_km": 35787.09150470388,
      "semi_major_axis_km": 42164.11411130021,
      "eccentricity": 0.00014404,
      "inclination_deg": 0.6505,
      "raan_deg": 86.1811,
      "arg_perigee_deg": 290.7049,
      "mean_anomaly_deg": 105.9111,
      "mean_motion_rev_day": 1.00273989
    },
    {
      "epoch": "2026-04-07T18:54:38.705472Z",
      "apogee_km": 35792.03386248478,
      "perigee_km": 35779.90746512066,
      "latitude_deg": 0.6305094291982105,
      "longitude_deg": 66.56076623985876,
      "height_km": 35791.358578729385,
      "semi_major_axis_km": 42164.10766380272,
      "eccentricity": 0.0001438,
      "inclination_deg": 0.6509,
      "raan_deg": 86.1799,
      "arg_perigee_deg": 291.0776,
      "mean_anomaly_deg": 169.0171,
      "mean_motion_rev_day": 1.00274012
    },
    {
      "epoch": "2026-04-08T12:56:15.903744Z",
      "apogee_km": 35791.973646463586,
      "perigee_km": 35779.90713079651,
      "latitude_deg": 0.11142072082751979,
      "longitude_deg": 66.57840470378157,
      "height_km": 35784.30886699485,
      "semi_major_axis_km": 42164.07738863005,
      "eccentricity": 0.00014309,
      "inclination_deg": 0.6527,
      "raan_deg": 86.1644,
      "arg_perigee_deg": 291.798,
      "mean_anomaly_deg": 79.4639,
      "mean_motion_rev_day": 1.0027412
    },
    {
      "epoch": "2026-04-09T19:53:20.201856Z",
      "apogee_km": 35791.88177308711,
      "perigee_km": 35782.0235751213,
      "latitude_deg": 0.5819254560845657,
      "longitude_deg": 66.56073494266677,
      "height_km": 35791.290967777975,
      "semi_major_axis_km": 42165.0896741042,
      "eccentricity": 0.0001169,
      "inclination_deg": 0.6557,
      "raan_deg": 86.1723,
      "arg_perigee_deg": 290.7763,
      "mean_anomaly_deg": 186.015,
      "mean_motion_rev_day": 1.00270509
    },
    {
      "epoch": "2026-04-10T11:08:42.452736Z",
      "apogee_km": 35791.778421036805,
      "perigee_km": 35782.05515963275,
      "latitude_deg": -0.1678572013359421,
      "longitude_deg": 66.56956161162483,
      "height_km": 35783.63950436057,
      "semi_major_axis_km": 42165.05379033478,
      "eccentricity": 0.0001153,
      "inclination_deg": 0.6572,
      "raan_deg": 86.155,
      "arg_perigee_deg": 291.1421,
      "mean_anomaly_deg": 55.1336,
      "mean_motion_rev_day": 1.00270637
    },
    {
      "epoch": "2026-04-11T20:58:13.734048Z",
      "apogee_km": 35791.58535748499,
      "perigee_km": 35782.20785401107,
      "latitude_deg": 0.47091674240708853,
      "longitude_deg": 66.54734340769458,
      "height_km": 35790.60364641214,
      "semi_major_axis_km": 42165.03360574803,
      "eccentricity": 0.0001112,
      "inclination_deg": 0.6607,
      "raan_deg": 86.1281,
      "arg_perigee_deg": 290.3297,
      "mean_anomaly_deg": 204.7368,
      "mean_motion_rev_day": 1.00270709
    },
    {
      "epoch": "2026-04-13T04:40:38.850240Z",
      "apogee_km": 35791.44568492187,
      "perigee_km": 35782.32117450088,
      "latitude_deg": -0.6140353831882429,
      "longitude_deg": 66.5351442133955,
      "height_km": 35782.838366146505,
      "semi_major_axis_km": 42165.02042971138,
      "eccentricity": 0.0001082,
      "inclination_deg": 0.6641,
      "raan_deg": 86.1001,
      "arg_perigee_deg": 289.8443,
      "mean_anomaly_deg": 322.1526,
      "mean_motion_rev_day": 1.00270756
    }
  ]
}